CCSDS_OMM_VERS = 2.0
CREATION_DATE  = 
ORIGINATOR     = 

OBJECT_NAME    = COSMOS 2242
OBJECT_ID      = 1993-024A
CENTER_NAME    = EARTH
REF_FRAME      = TEME
TIME_SYSTEM    = UTC
MEAN_ELEMENT_THEORY = SGP/SGP4

EPOCH          = 2026-04-05T02:41:45.820032
MEAN_MOTION    = 14.96677614
ECCENTRICITY   = .00155657
INCLINATION    = 82.5179
RA_OF_ASC_NODE = 241.4358
ARG_OF_PERICENTER = 212.1552
MEAN_ANOMALY   = 147.8722

EPHEMERIS_TYPE = 0
CLASSIFICATION_TYPE = U
NORAD_CAT_ID   = 22626
ELEMENT_SET_NO = 999
REV_AT_EPOCH   = 78434
BSTAR          = .24797437E-3
MEAN_MOTION_DOT = .2861E-4
MEAN_MOTION_DDOT = 0

CCSDS_OMM_VERS = 2.0
CREATION_DATE  = 
ORIGINATOR     = 

OBJECT_NAME    = SL-16 R/B
OBJECT_ID      = 1993-059B
CENTER_NAME    = EARTH
REF_FRAME      = TEME
TIME_SYSTEM    = UTC
MEAN_ELEMENT_THEORY = SGP/SGP4

EPOCH          = 2026-04-05T00:22:11.880192
MEAN_MOTION    = 14.17235099
ECCENTRICITY   = .00170112
INCLINATION    = 70.9905
RA_OF_ASC_NODE = 315.6135
ARG_OF_PERICENTER = 177.5347
MEAN_ANOMALY   = 182.5864

EPHEMERIS_TYPE = 0
CLASSIFICATION_TYPE = U
NORAD_CAT_ID   = 22803
ELEMENT_SET_NO = 999
REV_AT_EPOCH   = 68326
BSTAR          = .92007913E-4
MEAN_MOTION_DOT = .138E-5
MEAN_MOTION_DDOT = 0

CCSDS_OMM_VERS = 2.0
CREATION_DATE  = 
ORIGINATOR     = 

OBJECT_NAME    = ARIANE 40 R/B
OBJECT_ID      = 1993-061H
CENTER_NAME    = EARTH
REF_FRAME      = TEME
TIME_SYSTEM    = UTC
MEAN_ELEMENT_THEORY = SGP/SGP4

EPOCH          = 2026-04-05T03:56:28.832640
MEAN_MOTION    = 14.32876296
ECCENTRICITY   = .00104171
INCLINATION    = 98.4868
RA_OF_ASC_NODE = 163.5230
ARG_OF_PERICENTER = 199.7517
MEAN_ANOMALY   = 160.3265

EPHEMERIS_TYPE = 0
CLASSIFICATION_TYPE = U
NORAD_CAT_ID   = 22830
ELEMENT_SET_NO = 999
REV_AT_EPOCH   = 69789
BSTAR          = .13221226E-3
MEAN_MOTION_DOT = .318E-5
MEAN_MOTION_DDOT = 0

CCSDS_OMM_VERS = 2.0
CREATION_DATE  = 
ORIGINATOR     = 

OBJECT_NAME    = COSMOS 2278
OBJECT_ID      = 1994-023A
CENTER_NAME    = EARTH
REF_FRAME      = TEME
TIME_SYSTEM    = UTC
MEAN_ELEMENT_THEORY = SGP/SGP4

EPOCH          = 2026-04-05T04:33:19.704096
MEAN_MOTION    = 14.14375005
ECCENTRICITY   = .00093682
INCLINATION    = 71.0504
RA_OF_ASC_NODE = 119.6562
ARG_OF_PERICENTER = 334.3951
MEAN_ANOMALY   = 25.6707

EPHEMERIS_TYPE = 0
CLASSIFICATION_TYPE = U
NORAD_CAT_ID   = 23087
ELEMENT_SET_NO = 999
REV_AT_EPOCH   = 64855
BSTAR          = .40418748E-4
MEAN_MOTION_DOT = .3E-6
MEAN_MOTION_DDOT = 0

CCSDS_OMM_VERS = 2.0
CREATION_DATE  = 
ORIGINATOR     = 

OBJECT_NAME    = SL-16 R/B
OBJECT_ID      = 1994-023B
CENTER_NAME    = EARTH
REF_FRAME      = TEME
TIME_SYSTEM    = UTC
MEAN_ELEMENT_THEORY = SGP/SGP4

EPOCH          = 2026-04-05T05:23:02.730624
MEAN_MOTION    = 14.15019934
ECCENTRICITY   = .00056052
INCLINATION    = 71.0031
RA_OF_ASC_NODE = 15.1611
ARG_OF_PERICENTER = 262.5818
MEAN_ANOMALY   = 97.4667

EPHEMERIS_TYPE = 0
CLASSIFICATION_TYPE = U
NORAD_CAT_ID   = 23088
ELEMENT_SET_NO = 999
REV_AT_EPOCH   = 64984
BSTAR          = .93087754E-4
MEAN_MOTION_DOT = .133E-5
MEAN_MOTION_DDOT = 0

CCSDS_OMM_VERS = 2.0
CREATION_DATE  = 
ORIGINATOR     = 

OBJECT_NAME    = SL-16 R/B
OBJECT_ID      = 1994-074B
CENTER_NAME    = EARTH
REF_FRAME      = TEME
TIME_SYSTEM    = UTC
MEAN_ELEMENT_THEORY = SGP/SGP4

EPOCH          = 2026-04-05T02:30:29.917152
MEAN_MOTION    = 14.79439979
ECCENTRICITY   = .00077399
INCLINATION    = 97.7069
RA_OF_ASC_NODE = 124.8479
ARG_OF_PERICENTER = 127.8653
MEAN_ANOMALY   = 298.4830

EPHEMERIS_TYPE = 0
CLASSIFICATION_TYPE = U
NORAD_CAT_ID   = 23343
ELEMENT_SET_NO = 999
REV_AT_EPOCH   = 69115
BSTAR          = .92106972E-4
MEAN_MOTION_DOT = .638E-5
MEAN_MOTION_DDOT = 0

CCSDS_OMM_VERS = 2.0
CREATION_DATE  = 
ORIGINATOR     = 

OBJECT_NAME    = SL-16 R/B
OBJECT_ID      = 1994-077B
CENTER_NAME    = EARTH
REF_FRAME      = TEME
TIME_SYSTEM    = UTC
MEAN_ELEMENT_THEORY = SGP/SGP4

EPOCH          = 2026-04-05T06:23:24.144288
MEAN_MOTION    = 14.15567748
ECCENTRICITY   = .0001531
INCLINATION    = 70.9818
RA_OF_ASC_NODE = 296.5780
ARG_OF_PERICENTER = 187.6991
MEAN_ANOMALY   = 172.4108

EPHEMERIS_TYPE = 0
CLASSIFICATION_TYPE = U
NORAD_CAT_ID   = 23405
ELEMENT_SET_NO = 999
REV_AT_EPOCH   = 61999
BSTAR          = -.82774734E-4
MEAN_MOTION_DOT = -.21E-5
MEAN_MOTION_DDOT = 0

CCSDS_OMM_VERS = 2.0
CREATION_DATE  = 
ORIGINATOR     = 

OBJECT_NAME    = ARIANE 40+ R/B
OBJECT_ID      = 1995-021B
CENTER_NAME    = EARTH
REF_FRAME      = TEME
TIME_SYSTEM    = UTC
MEAN_ELEMENT_THEORY = SGP/SGP4

EPOCH          = 2026-04-05T05:11:28.141152
MEAN_MOTION    = 14.39792961
ECCENTRICITY   = .00077831
INCLINATION    = 98.4453
RA_OF_ASC_NODE = 166.3335
ARG_OF_PERICENTER = 68.2152
MEAN_ANOMALY   = 307.9976

EPHEMERIS_TYPE = 0
CLASSIFICATION_TYPE = U
NORAD_CAT_ID   = 23561
ELEMENT_SET_NO = 999
REV_AT_EPOCH   = 62306
BSTAR          = .15068944E-3
MEAN_MOTION_DOT = .429E-5
MEAN_MOTION_DDOT = 0

CCSDS_OMM_VERS = 2.0
CREATION_DATE  = 
ORIGINATOR     = 

OBJECT_NAME    = SL-16 R/B
OBJECT_ID      = 1995-058B
CENTER_NAME    = EARTH
REF_FRAME      = TEME
TIME_SYSTEM    = UTC
MEAN_ELEMENT_THEORY = SGP/SGP4

EPOCH          = 2026-04-05T06:35:20.846112
MEAN_MOTION    = 14.15497863
ECCENTRICITY   = .00103416
INCLINATION    = 71.0190
RA_OF_ASC_NODE = 124.4429
ARG_OF_PERICENTER = 77.0992
MEAN_ANOMALY   = 283.1286

EPHEMERIS_TYPE = 0
CLASSIFICATION_TYPE = U
NORAD_CAT_ID   = 23705
ELEMENT_SET_NO = 999
REV_AT_EPOCH   = 57161
BSTAR          = .23806107E-4
MEAN_MOTION_DOT = -.1E-7
MEAN_MOTION_DDOT = 0

CCSDS_OMM_VERS = 2.0
CREATION_DATE  = 
ORIGINATOR     = 

OBJECT_NAME    = SL-16 R/B
OBJECT_ID      = 1996-051B
CENTER_NAME    = EARTH
REF_FRAME      = TEME
TIME_SYSTEM    = UTC
MEAN_ELEMENT_THEORY = SGP/SGP4

EPOCH          = 2026-04-05T07:10:29.976384
MEAN_MOTION    = 14.12423581
ECCENTRICITY   = .00130489
INCLINATION    = 70.7580
RA_OF_ASC_NODE = 118.9184
ARG_OF_PERICENTER = 104.2012
MEAN_ANOMALY   = 256.0558

EPHEMERIS_TYPE = 0
CLASSIFICATION_TYPE = U
NORAD_CAT_ID   = 24298
ELEMENT_SET_NO = 999
REV_AT_EPOCH   = 52540
BSTAR          = .7705972E-4
MEAN_MOTION_DOT = .93E-6
MEAN_MOTION_DDOT = 0

CCSDS_OMM_VERS = 2.0
CREATION_DATE  = 
ORIGINATOR     = 

OBJECT_NAME    = ORBVIEW 2 (SEASTAR)
OBJECT_ID      = 1997-037A
CENTER_NAME    = EARTH
REF_FRAME      = TEME
TIME_SYSTEM    = UTC
MEAN_ELEMENT_THEORY = SGP/SGP4

EPOCH          = 2026-04-05T04:23:57.184800
MEAN_MOTION    = 14.35514802
ECCENTRICITY   = .0002025
INCLINATION    = 98.8613
RA_OF_ASC_NODE = 260.2035
ARG_OF_PERICENTER = 11.6558
MEAN_ANOMALY   = 348.4673

EPHEMERIS_TYPE = 0
CLASSIFICATION_TYPE = U
NORAD_CAT_ID   = 24883
ELEMENT_SET_NO = 999
REV_AT_EPOCH   = 51227
BSTAR          = .14999098E-3
MEAN_MOTION_DOT = .385E-5
MEAN_MOTION_DDOT = 0

CCSDS_OMM_VERS = 2.0
CREATION_DATE  = 
ORIGINATOR     = 

OBJECT_NAME    = SL-16 R/B
OBJECT_ID      = 1998-043G
CENTER_NAME    = EARTH
REF_FRAME      = TEME
TIME_SYSTEM    = UTC
MEAN_ELEMENT_THEORY = SGP/SGP4

EPOCH          = 2026-04-05T02:42:39.319776
MEAN_MOTION    = 14.26056237
ECCENTRICITY   = .00089397
INCLINATION    = 98.8299
RA_OF_ASC_NODE = 48.6711
ARG_OF_PERICENTER = 301.5398
MEAN_ANOMALY   = 58.4908

EPHEMERIS_TYPE = 0
CLASSIFICATION_TYPE = U
NORAD_CAT_ID   = 25400
ELEMENT_SET_NO = 999
REV_AT_EPOCH   = 44275
BSTAR          = .56928156E-4
MEAN_MOTION_DOT = .91E-6
MEAN_MOTION_DDOT = 0

